DMSP 5D-3 F16 (USA 172) 
1 28054U 03048A   26187.84105501  .00000018  00000+0  33272-4 0  9991
2 28054  98.9886 211.7988 0008214  91.6204  29.0883 14.14484849172267
METEOSAT-9 (MSG-2)      
1 28912U 05049B   26187.71894763  .00000134  00000+0  00000+0 0  9995
2 28912   9.4026  53.9709 0002205   0.5129 174.7441  1.00268686  7196
DMSP 5D-3 F17 (USA 191) 
1 29522U 06050A   26187.82741630  .00000044  00000+0  45259-4 0  9992
2 29522  98.7381 193.9957 0010218   6.9457 353.1856 14.14995799 15201
FENGYUN 3A              
1 32958U 08026A   26187.85317918  .00000070  00000+0  53635-4 0  9991
2 32958  98.6885 128.3188 0009864  73.3980 286.8279 14.19575331938192
GOES 14                 
1 35491U 09033A   26187.81439639 -.00000333  00000+0  00000+0 0  9992
2 35491   1.7372  82.8098 0002056  33.4760 231.9241  1.00102826  6788
DMSP 5D-3 F18 (USA 210) 
1 35951U 09057A   26187.80005354  .00000190  00000+0  12156-3 0  9990
2 35951  98.9048 168.5274 0010724 189.3848 170.7127 14.14907573862362
EWS-G2 (GOES 15)        
1 36411U 10008A   26187.87249671  .00000036  00000+0  00000+0 0  9999
2 36411   1.3283  82.5757 0005291  50.0675 169.7226  1.00268238 59836
COMS 1                  
1 36744U 10032A   26187.85896280 -.00000173  00000+0  00000+0 0  9990
2 36744   4.8524  75.1214 0011518  14.4384 139.6587  0.99169430 51285
FENGYUN 3B              
1 37214U 10059A   26187.90460913 -.00000063  00000+0 -94349-5 0  9992
2 37214  98.9606 234.0018 0022922 129.0820 352.0889 14.14846047810210
SUOMI NPP               
1 37849U 11061A   26187.86515774  .00000061  00000+0  49892-4 0  9999
2 37849  98.7955 128.6071 0000569 278.3728  81.7383 14.19521410761235
METEOSAT-10 (MSG-3)     
1 38552U 12035B   26187.85974280  .00000005  00000+0  00000+0 0  9994
2 38552   4.7151  60.9200 0001312  18.2458 155.2669  1.00269731 51059
METOP-B                 
1 38771U 12049A   26187.82868860  .00000074  00000+0  53716-4 0  9998
2 38771  98.6493 238.9351 0001137 306.5411  53.5662 14.21444742716059
INSAT-3D                
1 39216U 13038B   26187.74295403 -.00000325  00000+0  00000+0 0  9993
2 39216   1.9733  82.3029 0000537  53.3232 186.0797  1.00273010 47275
FENGYUN 3C              
1 39260U 13052A   26187.83236034  .00000071  00000+0  57145-4 0  9997
2 39260  98.4999 160.8062 0014077 331.3743  28.6658 14.15759408661345
METEOR-M 2              
1 40069U 14037A   26187.85477228 -.00000039  00000+0  15143-5 0  9992
2 40069  98.5130 162.8974 0005679 352.5382   7.5710 14.21466762622110
HIMAWARI-8              
1 40267U 14060A   26187.54003347 -.00000261  00000+0  00000+0 0  9998
2 40267   0.0149  40.4070 0000906  82.0177 137.1769  1.00270059 42958
FENGYUN 2G              
1 40367U 14090A   26187.76599638 -.00000288  00000+0  00000+0 0  9998
2 40367   5.6854  72.5838 0003771 150.1206  77.2680  1.00264571 42198
METEOSAT-11 (MSG-4)     
1 40732U 15034A   26187.86173616  .00000075  00000+0  00000+0 0  9991
2 40732   3.2495  70.9879 0002253 350.8144 182.5355  1.00269253  7417
ELEKTRO-L 2             
1 41105U 15074A   26187.42927926 -.00000106  00000+0  00000+0 0  9999
2 41105   6.7394  70.2876 0000610 247.6736 106.4642  1.00273507 38698
SENTINEL-3A             
1 41335U 16011A   26187.85293434  .00000077  00000+0  49658-4 0  9996
2 41335  98.6240 254.9533 0001410  92.8083 267.3259 14.26738142540869
INSAT-3DR               
1 41752U 16054A   26187.87457674 -.00000062  00000+0  00000+0 0  9994
2 41752   0.0482  89.4885 0010396 181.3656  42.8397  1.00272362 36012
HIMAWARI-9              
1 41836U 16064A   26187.74520736  .00000000  00000+0  00000+0 0  9995
2 41836   0.0139   7.6261 0002183 165.0123 161.1215  1.00270250 35407
GOES 16                 
1 41866U 16071A   26187.83918316 -.00000076  00000+0  00000+0 0  9995
2 41866   0.3862  85.6477 0000491  64.4442 332.1454  1.00271590 35309
FENGYUN 4A              
1 41882U 16077A   26187.88445678 -.00000343  00000+0  00000+0 0  9997
2 41882   2.3693  80.0723 0008096 157.7935 129.1777  1.00273432 35125
CYGFM05                 
1 41884U 16078A   26187.22137499  .00025774  00000+0  33767-3 0  9991
2 41884  34.9562 134.4688 0007683 314.5929  45.4168 15.57538608531721
CYGFM04                 
1 41885U 16078B   26187.13139866  .00033259  00000+0  35781-3 0  9997
2 41885  34.9321 101.7807 0005840 349.7202  10.3403 15.62650360531967
CYGFM02                 
1 41886U 16078C   26187.15850162  .00040064  00000+0  37913-3 0  9990
2 41886  34.9400  95.5638 0006666 354.1281   5.9367 15.65845080532140
CYGFM01                 
1 41887U 16078D   26187.26568215  .00026325  00000+0  33577-3 0  9994
2 41887  34.9389 135.0751 0007562 309.1565  50.8488 15.58247186531680
CYGFM08                 
1 41888U 16078E   26187.12774630  .00031131  00000+0  35616-3 0  9997
2 41888  34.9424 115.0587 0007984 338.7747  21.2646 15.61061717531938
CYGFM07                 
1 41890U 16078G   26187.14963022  .00031423  00000+0  35818-3 0  9995
2 41890  34.9442 103.2376 0006220 350.8300   9.2312 15.61171459531962
CYGFM03                 
1 41891U 16078H   26187.18469069  .00030928  00000+0  35269-3 0  9991
2 41891  34.9396 104.9358 0006251 337.7456  22.2998 15.61162045531943
